1 42023U 17008CD  21131.87858599  .00001928  00000-0  73768-4 0  9999
2 42023  97.3240 200.3745 0006924 198.0414 162.0581 15.27754858235709
1 42023U 17008CD  21132.14057710  .00001764  00000-0  67723-4 0  9998
2 42023  97.3239 200.6320 0006957 197.1038 162.9968 15.27755430235746
1 42023U 17008CD  21132.46806487  .00002982  00000-0  11264-3 0  9997
2 42023  97.3239 200.9537 0006978 195.8542 164.2480 15.27760800235793
1 42023U 17008CD  21132.73005501  .00003156  00000-0  11903-3 0  9999
2 42023  97.3238 201.2111 0007005 194.8542 165.2493 15.27762685235838
1 42023U 17008CD  21133.71251391  .00003840  00000-0  14419-3 0  9993
2 42023  97.3235 202.1765 0007136 191.2945 168.8135 15.27770866235981
1 42023U 17008CD  21134.43297941  .00004006  00000-0  15026-3 0  9994
2 42023  97.3235 202.8844 0007228 188.5939 171.5178 15.27778086236093
1 42023U 17008CD  21134.82595931  .00003929  00000-0  14741-3 0  9993
2 42023  97.3234 203.2706 0007268 187.1702 172.9435 15.27781720236158
1 42023U 17008CD  21135.15344219  .00003596  00000-0  13516-3 0  9990
2 42023  97.3233 203.5923 0007309 186.0762 174.0390 15.27783899236209
1 42023U 17008CD  21135.87390302  .00003017  00000-0  11382-3 0  9990
2 42023  97.3232 204.3003 0007387 183.4732 176.6458 15.27788218236315
1 42023U 17008CD  21136.46336882  .00003165  00000-0  11925-3 0  9996
2 42023  97.3231 204.8795 0007448 181.4375 178.6845 15.27793199236402
1 42023U 17008CD  21136.65985706  .00003101  00000-0  11686-3 0  9996
2 42023  97.3230 205.0726 0007470 180.7832 179.3397 15.27794615236430
1 42023U 17008CD  21137.90427712  .00002965  00000-0  11185-3 0  9994
2 42023  97.3230 206.2953 0007615 176.6452 183.4840 15.27804070236625
1 42023U 17008CD  21138.16625965  .00002964  00000-0  11180-3 0  9997
2 42023  97.3230 206.5527 0007640 175.7305 184.4001 15.27806070236666
1 42023U 17008CD  21138.49373740  .00003151  00000-0  11865-3 0  9993
2 42023  97.3231 206.8745 0007659 174.6517 185.4805 15.27808754236715
1 42023U 17008CD  21138.82121457  .00003347  00000-0  12587-3 0  9995
2 42023  97.3231 207.1963 0007698 173.5678 186.5661 15.27811465236760
1 42023U 17008CD  21139.41067130  .00003916  00000-0  14678-3 0  9993
2 42023  97.3232 207.7756 0007785 171.5214 188.6159 15.27817403236851
1 42023U 17008CD  21139.47616638  .00003977  00000-0  14902-3 0  9999
2 42023  97.3231 207.8399 0007796 171.2643 188.8734 15.27818056236866
1 42023U 17008CD  21139.73814667  .00003897  00000-0  14607-3 0  9993
2 42023  97.3231 208.0973 0007817 170.3428 189.7963 15.27819894236902
1 42023U 17008CD  21140.45859037  .00003754  00000-0  14077-3 0  9997
2 42023  97.3232 208.8052 0007888 168.0893 192.0535 15.27825285237013
1 42023U 17008CD  21140.65507455  .00003803  00000-0  14256-3 0  9997
2 42023  97.3232 208.9983 0007916 167.5692 192.5744 15.27827150237043
1 42023U 17008CD  21141.44100980  .00004001  00000-0  14982-3 0  9994
2 42023  97.3233 209.7704 0008007 164.9973 195.1506 15.27833651237160
1 42023U 17008CD  21141.70298778  .00002706  00000-0  10220-3 0  9997
2 42023  97.3234 210.0279 0008039 164.1212 196.0281 15.27832638237205
1 42023U 17008CD  21141.83397660  .00002806  00000-0  10588-3 0  9999
2 42023  97.3234 210.1566 0008041 163.7134 196.4366 15.27833682237226
1 42023U 17008CD  21142.22694172  .00003195  00000-0  12018-3 0  9993
2 42023  97.3235 210.5427 0008069 162.5587 197.5931 15.27837924237285
1 42023U 17008CD  21142.75089437  .00003569  00000-0  13391-3 0  9993
2 42023  97.3236 211.0576 0008134 160.7387 199.4162 15.27842886237367
1 42023U 17008CD  21142.88188149  .00003919  00000-0  14673-3 0  9990
2 42023  97.3235 211.1863 0008157 160.2565 199.8992 15.27845252237381
1 42023U 17008CD  21143.60231383  .00003406  00000-0  12788-3 0  9996
2 42023  97.3235 211.8941 0008229 157.9695 202.1900 15.27849794237496
1 42023U 17008CD  21143.86428888  .00003247  00000-0  12203-3 0  9997
2 42023  97.3235 212.1515 0008253 157.1798 202.9810 15.27851057237538
1 42023U 17008CD  21143.92978259  .00003216  00000-0  12090-3 0  9996
2 42023  97.3235 212.2159 0008258 157.0300 203.1310 15.27851400237547
1 42023U 17008CD  21144.45373167  .00003345  00000-0  12562-3 0  9999
2 42023  97.3234 212.7307 0008297 155.4104 204.7533 15.27855023237621
1 42023U 17008CD  21144.91218674  .00002607  00000-0  98487-4 0  9992
2 42023  97.3233 213.1811 0008344 153.9649 206.2012 15.27855619237692
1 42023U 17008CD  21145.43613477  .00002146  00000-0  81528-4 0  9996
2 42023  97.3233 213.6961 0008395 152.3671 207.8016 15.27856871237778
1 42023U 17008CD  21145.82909492  .00003155  00000-0  11860-3 0  9996
2 42023  97.3232 214.0823 0008364 151.0346 209.1359 15.27861431237830
1 42023U 17008CD  21146.41853504  .00002041  00000-0  77674-4 0  9993
2 42023  97.3231 214.6614 0008480 149.3238 210.8499 15.27860802237927
1 42023U 17008CD  21146.81149572  .00001801  00000-0  68842-4 0  9990
2 42023  97.3232 215.0476 0008465 148.0616 212.1138 15.27860626237983
1 42023U 17008CD  21147.46642748  .00001914  00000-0  72993-4 0  9992
2 42023  97.3232 215.6911 0008521 145.9982 214.1805 15.27863931238085
1 42023U 17008CD  21147.79389106  .00002298  00000-0  87108-4 0  9994
2 42023  97.3231 216.0129 0008534 144.9930 215.1872 15.27867936238136
1 42023U 17008CD  21148.25234287  .00002718  00000-0  10252-3 0  9997
2 42023  97.3228 216.4634 0008623 143.6252 216.5575 15.27870054238207
1 42023U 17008CD  21148.44882150  .00002848  00000-0  10728-3 0  9998
2 42023  97.3228 216.6564 0008648 143.0170 217.1667 15.27871351238234
1 42023U 17008CD  21148.71079221  .00002295  00000-0  86956-4 0  9998
2 42023  97.3227 216.9139 0008676 142.2338 217.9512 15.27871386238271
1 42023U 17008CD  21149.43121090  .00002385  00000-0  90256-4 0  9998
2 42023  97.3226 217.6217 0008712 140.0270 220.1612 15.27875883238382
1 42023U 17008CD  21149.75867172  .00003191  00000-0  11984-3 0  9997
2 42023  97.3224 217.9435 0008760 139.1154 221.0744 15.27881250238435
1 42023U 17008CD  21150.15162537  .00003037  00000-0  11416-3 0  9995
2 42023  97.3222 218.3296 0008798 137.9042 222.2875 15.27884149238490
1 42023U 17008CD  21150.67556272  .00002990  00000-0  11243-3 0  9990
2 42023  97.3223 218.8445 0008826 136.2826 223.9114 15.27887688238570
1 42023U 17008CD  21151.46146736  .00002704  00000-0  10194-3 0  9995
2 42023  97.3222 219.6168 0008881 133.9755 226.2218 15.27891496238692
1 42023U 17008CD  21151.72343557  .00002504  00000-0  94569-4 0  9991
2 42023  97.3224 219.8742 0008888 133.2282 226.9701 15.27891840238731
1 42023U 17008CD  21151.78892765  .00002395  00000-0  90599-4 0  9994
2 42023  97.3223 219.9385 0008894 133.0427 227.1559 15.27891763238749
1 42023U 17008CD  21152.44384664  .00002158  00000-0  81864-4 0  9994
2 42023  97.3223 220.5820 0008945 131.0789 229.1224 15.27894191238847
1 42023U 17008CD  21152.83679907  .00002686  00000-0  10127-3 0  9993
2 42023  97.3229 220.9681 0008894 129.8264 230.3759 15.27896470238904
1 42023U 17008CD  21153.49171541  .00001886  00000-0  71887-4 0  9999
2 42023  97.3225 221.6117 0009003 128.0132 232.1921 15.27897322239000
1 42023U 17008CD  21154.08114061  .00001661  00000-0  63630-4 0  9997
2 42023  97.3225 222.1909 0009032 126.2755 233.9320 15.27898640239093
1 42023U 17008CD  21154.40859861  .00001745  00000-0  66695-4 0  9994
2 42023  97.3225 222.5126 0009055 125.2996 234.9092 15.27900014239141
1 42023U 17008CD  21154.86703968  .00001830  00000-0  69822-4 0  9990
2 42023  97.3227 222.9630 0009050 123.7618 236.4485 15.27901981239211
1 42023U 17008CD  21155.45646244  .00001841  00000-0  70217-4 0  9991
2 42023  97.3227 223.5421 0009072 122.0969 238.1152 15.27904352239306
1 42023U 17008CD  21155.91490165  .00001890  00000-0  72004-4 0  9991
2 42023  97.3227 223.9926 0009077 120.7680 239.4455 15.27906381239371
1 42023U 17008CD  21156.43883109  .00002044  00000-0  77655-4 0  9992
2 42023  97.3227 224.5074 0009096 119.2740 240.9410 15.27909324239450
1 42023U 17008CD  21156.76628643  .00002140  00000-0  81167-4 0  9998
2 42023  97.3227 224.8292 0009120 118.2941 241.9220 15.27911286239501
1 42023U 17008CD  21157.42119635  .00002669  00000-0  10055-3 0  9991
2 42023  97.3227 225.4727 0009193 116.5257 243.6926 15.27915639239601
1 42023U 17008CD  21157.74865072  .00002595  00000-0  97841-4 0  9996
2 42023  97.3227 225.7945 0009193 115.5986 244.6205 15.27917165239656
1 42023U 17008CD  21158.07610507  .00001725  00000-0  65923-4 0  9994
2 42023  97.3227 226.1162 0009209 114.6557 245.5643 15.27916052239700
1 42023U 17008CD  21158.46904958  .00001865  00000-0  71068-4 0  9995
2 42023  97.3227 226.5023 0009232 113.4891 246.7319 15.27918400239762
1 42023U 17008CD  21158.92748384  .00002064  00000-0  78369-4 0  9998
2 42023  97.3227 226.9527 0009244 112.1386 248.0836 15.27921432239839
1 42023U 17008CD  21159.12395593  .00001958  00000-0  74454-4 0  9993
2 42023  97.3227 227.1458 0009247 111.5440 248.6786 15.27921905239860
1 42023U 17008CD  21159.25493675  .00002575  00000-0  97104-4 0  9990
2 42023  97.3227 227.2743 0009265 111.1959 249.0271 15.27924609239889
1 42023U 17008CD  21159.90984190  .00002237  00000-0  84706-4 0  9998
2 42023  97.3226 227.9178 0009280 109.3159 250.9085 15.27926410239982
1 42023U 17008CD  21160.43376370  .00002612  00000-0  98412-4 0  9999
2 42023  97.3225 228.4327 0009290 107.9395 252.2859 15.27930589240067
1 42023U 17008CD  21160.89219418  .00003113  00000-0  11678-3 0  9993
2 42023  97.3223 228.8831 0009305 106.6690 253.5571 15.27935006240132
1 42023U 17008CD  21161.48160394  .00002895  00000-0  10878-3 0  9994
2 42023  97.3224 229.4624 0009298 104.9864 255.2405 15.27937994240228
1 42023U 17008CD  21161.74356339  .00002828  00000-0  10630-3 0  9991
2 42023  97.3224 229.7198 0009299 104.1638 256.0635 15.27939469240266
1 42023U 17008CD  21162.26748200  .00002729  00000-0  10267-3 0  9997
2 42023  97.3222 230.2345 0009334 102.7945 257.4338 15.27942585240347
1 42023U 17008CD  21162.72590976  .00002542  00000-0  95827-4 0  9992
2 42023  97.3222 230.6850 0009327 101.4598 258.7690 15.27944405240410
